取得日時,空港名,ICAOコード,気温(°C),露点温度(°C),風向(°),風速(kt),最大瞬間風速(kt),視程(m),気圧(hPa),現在天気,雲の状態,原文
2026-01-08T00:19:43.662735+09:00,石家荘,ZBSJ,-4,-12,,1,,9999,1030,,,METAR ZBSJ 071500Z VRB01MPS CAVOK M04/M12 Q1030 NOSIG
2026-01-08T00:44:37.806835+09:00,石家荘,ZBSJ,-4,-12,,1,,9999,1030,,,ZBSJ 071500Z VRB01MPS CAVOK M04/M12 Q1030 NOSIG
