取得日時,空港名,ICAOコード,気温(°C),露点温度(°C),風向(°),風速(kt),最大瞬間風速(kt),視程(m),気圧(hPa),現在天気,雲の状態,原文
2025-12-30T00:17:53.481625+09:00,石家荘,ZBSJ,-5,-9,0,0,,7000,1024,,,ZBSJ 291500Z 00000MPS 7000 NSC M05/M09 Q1024 NOSIG
2025-12-30T00:39:29.091387+09:00,石家荘,ZBSJ,-5,-9,0,0,,7000,1024,,,ZBSJ 291500Z 00000MPS 7000 NSC M05/M09 Q1024 NOSIG
2025-12-30T00:52:31.139830+09:00,石家荘,ZBSJ,-5,-9,0,0,,7000,1024,,,ZBSJ 291500Z 00000MPS 7000 NSC M05/M09 Q1024 NOSIG
2025-12-30T01:19:57.478243+09:00,石家荘,ZBSJ,-6,-9,320,1,,8000,1024,,,ZBSJ 291600Z 32001MPS 8000 NSC M06/M09 Q1024 NOSIG
2025-12-30T01:46:02.532122+09:00,石家荘,ZBSJ,-6,-9,320,1,,8000,1024,,,ZBSJ 291600Z 32001MPS 8000 NSC M06/M09 Q1024 NOSIG
2025-12-30T02:14:45.776169+09:00,石家荘,ZBSJ,-5,-10,0,0,,7000,1025,,,ZBSJ 291700Z 00000MPS 7000 NSC M05/M10 Q1025 NOSIG
2025-12-30T02:34:49.336095+09:00,石家荘,ZBSJ,-5,-10,0,0,,7000,1025,,,ZBSJ 291700Z 00000MPS 7000 NSC M05/M10 Q1025 NOSIG
2025-12-30T02:47:34.186944+09:00,石家荘,ZBSJ,-5,-10,0,0,,7000,1025,,,ZBSJ 291700Z 00000MPS 7000 NSC M05/M10 Q1025 NOSIG
