取得日時,空港名,ICAOコード,気温(°C),露点温度(°C),風向(°),風速(kt),最大瞬間風速(kt),視程(m),気圧(hPa),現在天気,雲の状態,原文
2026-01-06T02:21:51.217389+09:00,石家荘,ZBSJ,-2,-8,300,2,,6000,1026,,,ZBSJ 051700Z 30002MPS 270V340 6000 NSC M02/M08 Q1026 NOSIG
2026-01-06T02:51:04.784062+09:00,石家荘,ZBSJ,-2,-8,300,2,,6000,1026,,,ZBSJ 051700Z 30002MPS 270V340 6000 NSC M02/M08 Q1026 NOSIG
