取得日時,空港名,ICAOコード,気温(°C),露点温度(°C),風向(°),風速(kt),最大瞬間風速(kt),視程(m),気圧(hPa),現在天気,雲の状態,原文
2026-01-11T00:14:57.411302+09:00,石家荘,ZBSJ,-2,-24,330,5,,9999,1032,,,ZBSJ 101500Z 33005MPS CAVOK M02/M24 Q1032 NOSIG
2026-01-11T00:34:00.864826+09:00,石家荘,ZBSJ,-2,-24,330,5,,9999,1032,,,METAR ZBSJ 101500Z 33005MPS CAVOK M02/M24 Q1032 NOSIG
2026-01-11T00:46:09.785333+09:00,石家荘,ZBSJ,-2,-24,330,5,,9999,1032,,,ZBSJ 101500Z 33005MPS CAVOK M02/M24 Q1032 NOSIG
2026-01-11T01:18:22.954655+09:00,石家荘,ZBSJ,-3,-23,330,4,,9999,1032,,,ZBSJ 101600Z 33004MPS CAVOK M03/M23 Q1032 NOSIG
2026-01-11T01:43:08.244921+09:00,石家荘,ZBSJ,-3,-23,330,4,,9999,1032,,,ZBSJ 101600Z 33004MPS CAVOK M03/M23 Q1032 NOSIG
2026-01-11T02:13:30.499524+09:00,石家荘,ZBSJ,-3,-23,340,4,,9999,1031,,,ZBSJ 101700Z 34004MPS 320V020 CAVOK M03/M23 Q1031 NOSIG
