取得日時,空港名,ICAOコード,気温(°C),露点温度(°C),風向(°),風速(kt),最大瞬間風速(kt),視程(m),気圧(hPa),現在天気,雲の状態,原文
2026-01-10T00:18:22.163437+09:00,大連,ZYTL,4,-2,280,8,,6000,1006,,,ZYTL 091500Z 28008MPS 6000 NSC 04/M02 Q1006 NOSIG
2026-01-10T00:42:41.938008+09:00,大連,ZYTL,4,-2,280,7,12,6000,1006,,,ZYTL 091530Z 28007G12MPS 6000 NSC 04/M02 Q1006 NOSIG
