取得日時,空港名,ICAOコード,気温(°C),露点温度(°C),風向(°),風速(kt),最大瞬間風速(kt),視程(m),気圧(hPa),現在天気,雲の状態,原文
2026-01-07T00:17:59.433069+09:00,大連,ZYTL,3,-9,350,4,,9999,1021,,,METAR ZYTL 061500Z 35004MPS 310V050 CAVOK 03/M09 Q1021 NOSIG
2026-01-07T00:41:37.540151+09:00,大連,ZYTL,1,-11,20,3,,9999,1021,,,ZYTL 061530Z 02003MPS 340V050 CAVOK 01/M11 Q1021 NOSIG
2026-01-07T01:21:47.429511+09:00,大連,ZYTL,1,-13,360,3,,9999,1022,,,ZYTL 061600Z 36003MPS 300V030 CAVOK 01/M13 Q1022 NOSIG
