取得日時,空港名,ICAOコード,気温(°C),露点温度(°C),風向(°),風速(kt),最大瞬間風速(kt),視程(m),気圧(hPa),現在天気,雲の状態,原文
2026-01-09T00:23:20.527937+09:00,大連,ZYTL,3,-8,230,4,,9999,1021,,,ZYTL 081500Z 23004MPS 200V260 CAVOK 03/M08 Q1021 NOSIG
