取得日時,空港名,ICAOコード,気温(°C),露点温度(°C),風向(°),風速(kt),最大瞬間風速(kt),視程(m),気圧(hPa),現在天気,雲の状態,原文
2026-01-05T00:14:36.219278+09:00,大連,ZYTL,-4,-10,280,2,,9999,1027,,,ZYTL 041500Z 28002MPS CAVOK M04/M10 Q1027 NOSIG
2026-01-05T00:33:17.903290+09:00,大連,ZYTL,-4,-10,280,2,,9999,1027,,,ZYTL 041500Z 28002MPS CAVOK M04/M10 Q1027 NOSIG
