取得日時,空港名,ICAOコード,気温(°C),露点温度(°C),風向(°),風速(kt),最大瞬間風速(kt),視程(m),気圧(hPa),現在天気,雲の状態,原文
2026-01-03T00:17:28.876740+09:00,大連,ZYTL,-6,-10,0,0,,9999,1027,,,ZYTL 021500Z 00000MPS CAVOK M06/M10 Q1027 NOSIG
2026-01-03T00:38:17.393172+09:00,大連,ZYTL,-5,-9,0,0,,9999,1027,,,ZYTL 021530Z 00000MPS CAVOK M05/M09 Q1027 NOSIG
2026-01-03T00:50:49.021032+09:00,大連,ZYTL,-5,-9,0,0,,9999,1027,,,ZYTL 021530Z 00000MPS CAVOK M05/M09 Q1027 NOSIG
