取得日時,空港名,ICAOコード,気温(°C),露点温度(°C),風向(°),風速(kt),最大瞬間風速(kt),視程(m),気圧(hPa),現在天気,雲の状態,原文
2025-12-31T00:17:27.399414+09:00,大連,ZYTL,-6,-18,,1,,9999,1032,,,ZYTL 301500Z VRB01MPS CAVOK M06/M18 Q1032 NOSIG
2025-12-31T00:39:15.040774+09:00,大連,ZYTL,-6,-18,,1,,9999,1033,,,ZYTL 301530Z VRB01MPS CAVOK M06/M18 Q1033 NOSIG
2025-12-31T00:52:12.170376+09:00,大連,ZYTL,-6,-18,,1,,9999,1033,,,ZYTL 301530Z VRB01MPS CAVOK M06/M18 Q1033 NOSIG
