取得日時,空港名,ICAOコード,気温(°C),露点温度(°C),風向(°),風速(kt),最大瞬間風速(kt),視程(m),気圧(hPa),現在天気,雲の状態,原文
2025-12-29T03:53:12.403680+09:00,天津,ZBTJ,-1,-8,330,4,,8000,1020,,,ZBTJ 281830Z 33004MPS 8000 NSC M01/M08 Q1020 NOSIG
2025-12-29T04:28:31.211308+09:00,天津,ZBTJ,-2,-8,330,5,,9999,1020,,,ZBTJ 281900Z 33005MPS CAVOK M02/M08 Q1020 NOSIG
2025-12-29T04:44:21.472138+09:00,天津,ZBTJ,-2,-9,350,4,,9999,1020,,,ZBTJ 281930Z 35004MPS CAVOK M02/M09 Q1020 NOSIG
2025-12-29T05:41:37.157359+09:00,天津,ZBTJ,-2,-10,360,4,,9999,1020,,,ZBTJ 282030Z 36004MPS CAVOK M02/M10 Q1020 NOSIG
