取得日時,空港名,ICAOコード,気温(°C),露点温度(°C),風向(°),風速(kt),最大瞬間風速(kt),視程(m),気圧(hPa),現在天気,雲の状態,原文
2026-01-05T12:32:01.259031+09:00,天津,ZBTJ,1,-9,340,3,,7000,1031,,,ZBTJ 050300Z 34003MPS 7000 NSC 01/M09 Q1031 NOSIG
2026-01-05T13:44:19.155494+09:00,天津,ZBTJ,3,-10,330,3,,8000,1030,,,ZBTJ 050430Z 33003MPS 300V010 8000 NSC 03/M10 Q1030 NOSIG
