取得日時,空港名,ICAOコード,気温(°C),露点温度(°C),風向(°),風速(kt),最大瞬間風速(kt),視程(m),気圧(hPa),現在天気,雲の状態,原文
2026-01-07T00:17:58.265187+09:00,天津,ZBTJ,2,-18,330,7,,9000,1025,,,METAR ZBTJ 061500Z 33007MPS 9000 NSC 02/M18 Q1025 NOSIG
2026-01-07T00:41:37.139331+09:00,天津,ZBTJ,2,-18,330,6,,9000,1025,,,ZBTJ 061530Z 33006MPS 9000 NSC 02/M18 Q1025 NOSIG
2026-01-07T01:21:47.232576+09:00,天津,ZBTJ,1,-17,340,6,,9000,1026,,,ZBTJ 061600Z 34006MPS 9000 NSC 01/M17 Q1026 NOSIG
2026-01-07T01:58:23.277456+09:00,天津,ZBTJ,0,-16,330,6,,9000,1026,,,ZBTJ 061630Z 33006MPS 9000 NSC M00/M16 Q1026 NOSIG
2026-01-07T02:26:16.842506+09:00,天津,ZBTJ,1,-18,320,6,,9999,1026,,,ZBTJ 061700Z 32006MPS CAVOK 01/M18 Q1026 NOSIG
2026-01-07T02:51:37.228821+09:00,天津,ZBTJ,0,-15,340,5,,9999,1026,,,ZBTJ 061730Z 34005MPS CAVOK M00/M15 Q1026 NOSIG
2026-01-07T03:23:54.392474+09:00,天津,ZBTJ,-1,-15,330,5,,9999,1027,,,ZBTJ 061800Z 33005MPS CAVOK M01/M15 Q1027 NOSIG
2026-01-07T03:55:54.028333+09:00,天津,ZBTJ,0,-15,340,5,,9999,1027,,,ZBTJ 061830Z 34005MPS CAVOK M00/M15 Q1027 NOSIG
2026-01-07T04:14:15.211817+09:00,天津,ZBTJ,-2,-15,340,5,,9999,1027,,,ZBTJ 061900Z 34005MPS CAVOK M02/M15 Q1027 NOSIG
2026-01-07T04:30:32.427761+09:00,天津,ZBTJ,-2,-15,340,5,,9999,1027,,,ZBTJ 061900Z 34005MPS CAVOK M02/M15 Q1027 NOSIG
2026-01-07T04:45:50.186828+09:00,天津,ZBTJ,-2,-15,340,5,,9999,1027,,,ZBTJ 061930Z 34005MPS CAVOK M02/M15 Q1027 NOSIG
2026-01-07T05:18:42.261816+09:00,天津,ZBTJ,-2,-15,360,2,,9999,1027,,,METAR ZBTJ 062000Z 36002MPS CAVOK M02/M15 Q1027 NOSIG
2026-01-07T05:41:41.221513+09:00,天津,ZBTJ,-1,-15,10,3,,9999,1027,,,ZBTJ 062030Z 01003MPS CAVOK M01/M15 Q1027 NOSIG
2026-01-07T06:16:24.295716+09:00,天津,ZBTJ,-3,-15,350,3,,9999,1027,,,ZBTJ 062100Z 35003MPS CAVOK M03/M15 Q1027 NOSIG
2026-01-07T06:36:19.080562+09:00,天津,ZBTJ,-3,-15,350,3,,9999,1027,,,ZBTJ 062100Z 35003MPS CAVOK M03/M15 Q1027 NOSIG
2026-01-07T06:49:11.825840+09:00,天津,ZBTJ,-3,-15,340,3,,9999,1027,,,ZBTJ 062130Z 34003MPS CAVOK M03/M15 Q1027 NOSIG
2026-01-07T07:16:51.447662+09:00,天津,ZBTJ,-2,-15,340,2,,9999,1028,,,ZBTJ 062200Z 34002MPS CAVOK M02/M15 Q1028 NOSIG
2026-01-07T07:41:29.710898+09:00,天津,ZBTJ,-3,-15,360,3,,9999,1028,,,ZBTJ 062230Z 36003MPS CAVOK M03/M15 Q1028 NOSIG
2026-01-07T08:16:07.555660+09:00,天津,ZBTJ,-4,-15,350,2,,9999,1028,,,ZBTJ 062300Z 35002MPS CAVOK M04/M15 Q1028 NOSIG
2026-01-07T08:35:02.198031+09:00,天津,ZBTJ,-4,-15,350,2,,9999,1028,,,ZBTJ 062300Z 35002MPS CAVOK M04/M15 Q1028 NOSIG
2026-01-07T08:46:03.214935+09:00,天津,ZBTJ,-2,-15,20,3,,9999,1028,,,ZBTJ 062330Z 02003MPS CAVOK M02/M15 Q1028 NOSIG
2026-01-07T10:17:21.131376+09:00,天津,ZBTJ,0,-16,350,2,,9999,1029,,,ZBTJ 070100Z 35002MPS 320V020 CAVOK M00/M16 Q1029 NOSIG
2026-01-07T12:08:09.630439+09:00,天津,ZBTJ,3,-18,350,3,,9999,1030,,,ZBTJ 070300Z 35003MPS 320V040 CAVOK 03/M18 Q1030 NOSIG
2026-01-07T13:11:12.070708+09:00,天津,ZBTJ,4,-17,360,5,,9999,1029,,,ZBTJ 070400Z 36005MPS 330V040 CAVOK 04/M17 Q1029 NOSIG
2026-01-07T13:54:46.648691+09:00,天津,ZBTJ,4,-18,340,6,,9999,1029,,,ZBTJ 070430Z 34006MPS CAVOK 04/M18 Q1029 NOSIG
2026-01-07T14:21:33.472795+09:00,天津,ZBTJ,4,-17,10,4,,9999,1028,,,ZBTJ 070500Z 01004MPS 340V040 CAVOK 04/M17 Q1028 NOSIG
2026-01-07T14:52:26.026527+09:00,天津,ZBTJ,4,-17,360,4,,9999,1028,,,ZBTJ 070530Z 36004MPS 310V030 CAVOK 04/M17 Q1028 NOSIG
2026-01-07T15:26:19.285933+09:00,天津,ZBTJ,4,-18,330,6,,9999,1028,,,ZBTJ 070600Z 33006MPS CAVOK 04/M18 Q1028 NOSIG
2026-01-07T15:59:56.007333+09:00,天津,ZBTJ,4,-18,340,4,,9999,1028,,,ZBTJ 070630Z 34004MPS CAVOK 04/M18 Q1028 NOSIG
2026-01-07T16:32:35.053794+09:00,天津,ZBTJ,4,-17,10,4,,9999,1028,,,ZBTJ 070700Z 01004MPS CAVOK 04/M17 Q1028 NOSIG
2026-01-07T16:49:48.681690+09:00,天津,ZBTJ,4,-17,350,5,,9999,1028,,,ZBTJ 070730Z 35005MPS CAVOK 04/M17 Q1028 NOSIG
2026-01-07T17:23:47.277119+09:00,天津,ZBTJ,4,-17,350,5,,9999,1028,,,ZBTJ 070800Z 35005MPS CAVOK 04/M17 Q1028 NOSIG
2026-01-07T17:59:11.748968+09:00,天津,ZBTJ,3,-17,360,3,,9999,1028,,,ZBTJ 070830Z 36003MPS CAVOK 03/M17 Q1028 NOSIG
2026-01-07T18:34:10.090268+09:00,天津,ZBTJ,2,-16,360,3,,9999,1028,,,METAR ZBTJ 070900Z 36003MPS 320V020 CAVOK 02/M16 Q1028 NOSIG
2026-01-07T18:53:15.119046+09:00,天津,ZBTJ,2,-16,340,2,,9999,1029,,,ZBTJ 070930Z 34002MPS CAVOK 02/M16 Q1029 NOSIG
2026-01-07T19:19:24.101048+09:00,天津,ZBTJ,1,-16,330,2,,9999,1029,,,METAR ZBTJ 071000Z 33002MPS CAVOK 01/M16 Q1029 NOSIG
2026-01-07T19:45:19.121191+09:00,天津,ZBTJ,2,-16,320,1,,9999,1029,,,ZBTJ 071030Z 32001MPS CAVOK 02/M16 Q1029 NOSIG
2026-01-07T20:16:04.062781+09:00,天津,ZBTJ,2,-16,,1,,9999,1030,,,ZBTJ 071100Z VRB01MPS CAVOK 02/M16 Q1030 NOSIG
2026-01-07T20:33:51.827480+09:00,天津,ZBTJ,2,-16,,1,,9999,1030,,,ZBTJ 071100Z VRB01MPS CAVOK 02/M16 Q1030 NOSIG
2026-01-07T20:47:16.948497+09:00,天津,ZBTJ,1,-16,,1,,9999,1030,,,ZBTJ 071130Z VRB01MPS CAVOK 01/M16 Q1030 NOSIG
2026-01-07T21:35:47.215293+09:00,天津,ZBTJ,2,-16,290,1,,9999,1030,,,ZBTJ 071200Z 29001MPS CAVOK 02/M16 Q1030 NOSIG
2026-01-07T22:24:30.848562+09:00,天津,ZBTJ,1,-16,,1,,9999,1030,,,ZBTJ 071300Z VRB01MPS CAVOK 01/M16 Q1030 NOSIG
2026-01-07T22:58:57.616965+09:00,天津,ZBTJ,-1,-14,330,1,,9999,1031,,,ZBTJ 071330Z 33001MPS CAVOK M01/M14 Q1031 NOSIG
