取得日時,空港名,ICAOコード,気温(°C),露点温度(°C),風向(°),風速(kt),最大瞬間風速(kt),視程(m),気圧(hPa),現在天気,雲の状態,原文
2026-01-03T00:17:28.664457+09:00,天津,ZBTJ,0,-11,230,2,,9999,1028,,,ZBTJ 021500Z 23002MPS CAVOK M00/M11 Q1028 NOSIG
