取得日時,空港名,ICAOコード,気温(°C),露点温度(°C),風向(°),風速(kt),最大瞬間風速(kt),視程(m),気圧(hPa),現在天気,雲の状態,原文
2025-12-31T00:17:27.152471+09:00,天津,ZBTJ,-4,-17,340,2,,9999,1034,,,ZBTJ 301500Z 34002MPS CAVOK M04/M17 Q1034 NOSIG
2025-12-31T00:39:14.635886+09:00,天津,ZBTJ,-6,-16,350,3,,9999,1034,,,ZBTJ 301530Z 35003MPS CAVOK M06/M16 Q1034 NOSIG
2025-12-31T00:52:11.530660+09:00,天津,ZBTJ,-6,-16,350,3,,9999,1034,,,ZBTJ 301530Z 35003MPS CAVOK M06/M16 Q1034 NOSIG
2025-12-31T01:21:04.147567+09:00,天津,ZBTJ,-4,-16,340,2,,9999,1034,,,ZBTJ 301600Z 34002MPS CAVOK M04/M16 Q1034 NOSIG
