取得日時,空港名,ICAOコード,気温(°C),露点温度(°C),風向(°),風速(kt),最大瞬間風速(kt),視程(m),気圧(hPa),現在天気,雲の状態,原文
2026-01-01T00:16:24.874412+09:00,天津,ZBTJ,-4,-18,250,2,,9999,1034,,,ZBTJ 311500Z 25002MPS CAVOK M04/M18 Q1034 NOSIG
