取得日時,空港名,ICAOコード,気温(°C),露点温度(°C),風向(°),風速(kt),最大瞬間風速(kt),視程(m),気圧(hPa),現在天気,雲の状態,原文
2026-01-10T00:18:21.988475+09:00,天津,ZBTJ,4,-15,310,6,,9999,1014,,,ZBTJ 091500Z 31006MPS CAVOK 04/M15 Q1014 NOSIG
2026-01-10T00:42:41.002445+09:00,天津,ZBTJ,3,-15,310,6,,9999,1015,,,ZBTJ 091530Z 31006MPS 280V340 CAVOK 03/M15 Q1015 NOSIG
2026-01-10T01:20:59.949196+09:00,天津,ZBTJ,3,-16,310,7,12,9999,1015,,,ZBTJ 091600Z 31007G12MPS CAVOK 03/M16 Q1015 NOSIG
2026-01-10T01:57:46.175712+09:00,天津,ZBTJ,3,-16,310,7,,9999,1015,,,ZBTJ 091630Z 31007MPS 270V330 CAVOK 03/M16 Q1015 NOSIG
