取得日時,空港名,ICAOコード,気温(°C),露点温度(°C),風向(°),風速(kt),最大瞬間風速(kt),視程(m),気圧(hPa),現在天気,雲の状態,原文
2025-12-31T00:17:27.152471+09:00,天津,ZBTJ,-4,-17,340,2,,9999,1034,,,ZBTJ 301500Z 34002MPS CAVOK M04/M17 Q1034 NOSIG
2025-12-31T00:39:14.635886+09:00,天津,ZBTJ,-6,-16,350,3,,9999,1034,,,ZBTJ 301530Z 35003MPS CAVOK M06/M16 Q1034 NOSIG
2025-12-31T00:52:11.530660+09:00,天津,ZBTJ,-6,-16,350,3,,9999,1034,,,ZBTJ 301530Z 35003MPS CAVOK M06/M16 Q1034 NOSIG
2025-12-31T01:21:04.147567+09:00,天津,ZBTJ,-4,-16,340,2,,9999,1034,,,ZBTJ 301600Z 34002MPS CAVOK M04/M16 Q1034 NOSIG
2025-12-31T01:55:23.127268+09:00,天津,ZBTJ,-6,-17,340,3,,9999,1034,,,ZBTJ 301630Z 34003MPS CAVOK M06/M17 Q1034 NOSIG
2025-12-31T02:16:48.984077+09:00,天津,ZBTJ,-7,-15,340,3,,9999,1035,,,ZBTJ 301700Z 34003MPS CAVOK M07/M15 Q1035 NOSIG
2025-12-31T02:39:48.574868+09:00,天津,ZBTJ,-6,-16,330,3,,9999,1035,,,ZBTJ 301730Z 33003MPS CAVOK M06/M16 Q1035 NOSIG
2025-12-31T02:52:20.525333+09:00,天津,ZBTJ,-6,-16,330,3,,9999,1035,,,ZBTJ 301730Z 33003MPS CAVOK M06/M16 Q1035 NOSIG
2025-12-31T03:23:57.951125+09:00,天津,ZBTJ,-7,-15,350,4,,9999,1036,,,ZBTJ 301800Z 35004MPS CAVOK M07/M15 Q1036 NOSIG
2025-12-31T03:56:56.617132+09:00,天津,ZBTJ,-8,-16,350,4,,9999,1036,,,ZBTJ 301830Z 35004MPS CAVOK M08/M16 Q1036 NOSIG
2025-12-31T04:17:07.656791+09:00,天津,ZBTJ,-8,-15,360,3,,9999,1036,,,ZBTJ 301900Z 36003MPS CAVOK M08/M15 Q1036 NOSIG
2025-12-31T04:30:13.087419+09:00,天津,ZBTJ,-8,-15,360,3,,9999,1036,,,ZBTJ 301900Z 36003MPS CAVOK M08/M15 Q1036 NOSIG
2025-12-31T04:44:03.400645+09:00,天津,ZBTJ,-7,-16,330,3,,9999,1036,,,ZBTJ 301930Z 33003MPS CAVOK M07/M16 Q1036 NOSIG
2025-12-31T05:17:59.716900+09:00,天津,ZBTJ,-8,-16,350,3,,9999,1036,,,ZBTJ 302000Z 35003MPS CAVOK M08/M16 Q1036 NOSIG
2025-12-31T05:40:22.017514+09:00,天津,ZBTJ,-8,-16,340,3,,9999,1037,,,ZBTJ 302030Z 34003MPS CAVOK M08/M16 Q1037 NOSIG
2025-12-31T06:15:40.829191+09:00,天津,ZBTJ,-8,-16,340,3,,9999,1037,,,ZBTJ 302100Z 34003MPS CAVOK M08/M16 Q1037 NOSIG
2025-12-31T06:33:29.879385+09:00,天津,ZBTJ,-8,-16,340,3,,9999,1037,,,ZBTJ 302100Z 34003MPS CAVOK M08/M16 Q1037 NOSIG
2025-12-31T06:46:51.165665+09:00,天津,ZBTJ,-7,-17,330,3,,9999,1037,,,ZBTJ 302130Z 33003MPS CAVOK M07/M17 Q1037 NOSIG
2025-12-31T07:15:09.989535+09:00,天津,ZBTJ,-8,-16,340,2,,9999,1037,,,ZBTJ 302200Z 34002MPS CAVOK M08/M16 Q1037 NOSIG
2025-12-31T07:37:22.904326+09:00,天津,ZBTJ,-8,-17,320,2,,9999,1037,,,ZBTJ 302230Z 32002MPS CAVOK M08/M17 Q1037 NOSIG
2025-12-31T07:49:51.137892+09:00,天津,ZBTJ,-8,-17,320,2,,9999,1037,,,ZBTJ 302230Z 32002MPS CAVOK M08/M17 Q1037 NOSIG
2025-12-31T08:14:48.792518+09:00,天津,ZBTJ,-8,-18,340,2,,9999,1037,,,ZBTJ 302300Z 34002MPS CAVOK M08/M18 Q1037 NOSIG
2025-12-31T08:32:31.101177+09:00,天津,ZBTJ,-8,-18,340,2,,9999,1037,,,ZBTJ 302300Z 34002MPS CAVOK M08/M18 Q1037 NOSIG
2025-12-31T08:45:56.759323+09:00,天津,ZBTJ,-9,-18,340,3,,9999,1037,,,ZBTJ 302330Z 34003MPS CAVOK M09/M18 Q1037 NOSIG
2025-12-31T10:16:50.101210+09:00,天津,ZBTJ,-5,-18,10,3,,9999,1038,,,ZBTJ 310100Z 01003MPS CAVOK M05/M18 Q1038 NOSIG
2025-12-31T12:03:10.191227+09:00,天津,ZBTJ,-3,-20,20,5,,9999,1038,,,ZBTJ 310230Z 02005MPS 340V040 CAVOK M03/M20 Q1038 NOSIG
2025-12-31T13:08:29.133538+09:00,天津,ZBTJ,-2,-21,360,3,,9999,1037,,,ZBTJ 310400Z 36003MPS 320V040 CAVOK M02/M21 Q1037 NOSIG
2025-12-31T13:51:50.481889+09:00,天津,ZBTJ,-1,-21,350,3,,9999,1036,,,ZBTJ 310430Z 35003MPS 310V080 CAVOK M01/M21 Q1036 NOSIG
2025-12-31T14:22:44.373576+09:00,天津,ZBTJ,-2,-22,330,3,,9999,1035,,,ZBTJ 310500Z 33003MPS 290V010 CAVOK M02/M22 Q1035 NOSIG
2025-12-31T14:51:52.502306+09:00,天津,ZBTJ,-1,-21,360,3,,9999,1035,,,ZBTJ 310530Z 36003MPS 280V040 CAVOK M01/M21 Q1035 NOSIG
2025-12-31T15:26:09.799655+09:00,天津,ZBTJ,-1,-21,350,3,,9999,1035,,,ZBTJ 310600Z 35003MPS 330V030 CAVOK M01/M21 Q1035 NOSIG
2025-12-31T15:59:01.467984+09:00,天津,ZBTJ,-1,-22,320,3,,9999,1034,,,ZBTJ 310630Z 32003MPS 280V010 CAVOK M01/M22 Q1034 NOSIG
