取得日時,空港名,ICAOコード,気温(°C),露点温度(°C),風向(°),風速(kt),最大瞬間風速(kt),視程(m),気圧(hPa),現在天気,雲の状態,原文
2025-12-30T00:17:52.597294+09:00,天津,ZBTJ,-1,-6,200,1,,9999,1025,,,ZBTJ 291500Z 20001MPS CAVOK M01/M06 Q1025 NOSIG
2025-12-30T00:39:28.321923+09:00,天津,ZBTJ,-1,-4,210,1,,9000,1025,,,ZBTJ 291530Z 21001MPS 9000 NSC M01/M04 Q1025 NOSIG
2025-12-30T00:52:30.402778+09:00,天津,ZBTJ,-1,-4,210,1,,9000,1025,,,ZBTJ 291530Z 21001MPS 9000 NSC M01/M04 Q1025 NOSIG
