取得日時,空港名,ICAOコード,気温(°C),露点温度(°C),風向(°),風速(kt),最大瞬間風速(kt),視程(m),気圧(hPa),現在天気,雲の状態,原文
2026-01-01T00:16:24.100403+09:00,成田,RJAA,4,3,330,7,,9999,1010,,,RJAA 311500Z AUTO 33007KT 9999 NSC 04/03 Q1010 NOSIG RMK A2985
2026-01-01T00:35:51.213111+09:00,成田,RJAA,4,3,330,7,,9999,1010,,,RJAA 311500Z AUTO 33007KT 9999 NSC 04/03 Q1010 NOSIG RMK A2985
2026-01-01T00:48:11.838872+09:00,成田,RJAA,4,3,360,7,,9999,1010,,,RJAA 311530Z AUTO 36007KT 9999 NSC 04/03 Q1010 NOSIG RMK A2985
