取得日時,空港名,ICAOコード,気温(°C),露点温度(°C),風向(°),風速(kt),最大瞬間風速(kt),視程(m),気圧(hPa),現在天気,雲の状態,原文
2026-01-02T00:16:36.930950+09:00,成田,RJAA,4,0,320,6,,9999,1009,,,RJAA 011500Z AUTO 32006KT 9999 NSC 04/M00 Q1009 NOSIG RMK A2980
2026-01-02T00:36:07.784931+09:00,成田,RJAA,4,0,320,6,,9999,1009,,,RJAA 011500Z AUTO 32006KT 9999 NSC 04/M00 Q1009 NOSIG RMK A2980
2026-01-02T00:48:35.025177+09:00,成田,RJAA,4,-1,320,5,,9999,1009,,,RJAA 011530Z AUTO 32005KT 9999 NSC 04/M01 Q1009 NOSIG RMK A2981
2026-01-02T01:54:22.719143+09:00,成田,RJAA,4,-1,320,5,,9999,1009,,,RJAA 011630Z AUTO 32005KT 9999 NSC 04/M01 Q1009 NOSIG RMK A2981
2026-01-02T02:15:51.189286+09:00,成田,RJAA,4,-1,320,5,,9999,1009,,,RJAA 011700Z AUTO 32005KT 9999 NSC 04/M01 Q1009 NOSIG RMK A2981
