取得日時,空港名,ICAOコード,気温(°C),露点温度(°C),風向(°),風速(kt),最大瞬間風速(kt),視程(m),気圧(hPa),現在天気,雲の状態,原文
2026-01-10T00:42:38.724947+09:00,成田,RJAA,4,-2,350,3,,9999,1019,,,RJAA 091530Z AUTO 35003KT 330V040 9999 NSC 04/M02 Q1019 NOSIG RMK A3009
