取得日時,空港名,ICAOコード,気温(°C),露点温度(°C),風向(°),風速(kt),最大瞬間風速(kt),視程(m),気圧(hPa),現在天気,雲の状態,原文
2026-01-05T00:14:34.552163+09:00,成田,RJAA,1,-2,220,3,,9999,1012,,,RJAA 041500Z AUTO 22003KT 9999 NCD 01/M02 Q1012 NOSIG
2026-01-05T00:33:14.005202+09:00,成田,RJAA,1,-2,220,3,,9999,1012,,,RJAA 041500Z AUTO 22003KT 9999 NCD 01/M02 Q1012 NOSIG
2026-01-05T00:46:11.669728+09:00,成田,RJAA,1,-1,240,1,,9999,1011,,,RJAA 041530Z AUTO 24001KT 9999 NCD 01/M01 Q1011 BECMG 30005KT
2026-01-05T01:18:26.941294+09:00,成田,RJAA,0,-1,,2,,9999,1012,,,RJAA 041600Z AUTO VRB02KT 9999 NCD M00/M01 Q1012 BECMG 30005KT
2026-01-05T01:43:05.474150+09:00,成田,RJAA,0,-1,220,2,,9999,1012,,,RJAA 041630Z AUTO 22002KT 9999 NCD M00/M01 Q1012 BECMG 30005KT
2026-01-05T02:13:12.218719+09:00,成田,RJAA,0,-2,260,1,,9999,1011,,,RJAA 041700Z AUTO 26001KT 9999 NCD M00/M02 Q1011 NOSIG
2026-01-05T02:33:16.788561+09:00,成田,RJAA,0,-2,260,1,,9999,1011,,,RJAA 041700Z AUTO 26001KT 9999 NCD M00/M02 Q1011 NOSIG
