取得日時,空港名,ICAOコード,気温(°C),露点温度(°C),風向(°),風速(kt),最大瞬間風速(kt),視程(m),気圧(hPa),現在天気,雲の状態,原文
2026-01-08T00:19:38.831116+09:00,成田,RJAA,-2,-2,240,3,,9999,1010,,,METAR RJAA 071500Z AUTO 24003KT 9999 NCD M02/M02 Q1010 BECMG 23005KT RMK A2984
