取得日時,空港名,ICAOコード,気温(°C),露点温度(°C),風向(°),風速(kt),最大瞬間風速(kt),視程(m),気圧(hPa),現在天気,雲の状態,原文
2025-12-29T00:35:28.341026+09:00,成田,RJAA,3,-1,,1,,9999,1022,,,RJAA 281500Z AUTO VRB01KT 9999 NCD 03/M01 Q1022 BECMG 05005KT RMK A3019
2025-12-29T00:47:57.287934+09:00,成田,RJAA,2,-1,350,2,,9999,1022,,,RJAA 281530Z AUTO 35002KT 9999 NCD 02/M01 Q1022 NOSIG RMK A3018
