取得日時,空港名,ICAOコード,気温(°C),露点温度(°C),風向(°),風速(kt),最大瞬間風速(kt),視程(m),気圧(hPa),現在天気,雲の状態,原文
2026-01-06T00:19:21.682397+09:00,成田,RJAA,3,-2,10,8,,9999,1009,,,RJAA 051500Z AUTO 01008KT 9999 NCD 03/M02 Q1009 NOSIG RMK A2981
2026-01-06T00:42:54.439116+09:00,成田,RJAA,2,-3,360,8,,9999,1010,,,RJAA 051530Z AUTO 36008KT 9999 NCD 02/M03 Q1010 NOSIG RMK A2982
2026-01-06T01:22:33.102675+09:00,成田,RJAA,1,-3,350,5,,9999,1010,,,RJAA 051600Z AUTO 35005KT 9999 NCD 01/M03 Q1010 NOSIG RMK A2984
2026-01-06T01:56:38.261393+09:00,成田,RJAA,1,-3,330,4,,9999,1010,,,RJAA 051630Z AUTO 33004KT 9999 NCD 01/M03 Q1010 NOSIG RMK A2985
2026-01-06T02:21:49.812724+09:00,成田,RJAA,0,-2,,1,,9999,1011,,,RJAA 051700Z AUTO VRB01KT 9999 NSC M00/M02 Q1011 NOSIG RMK A2986
