取得日時,空港名,ICAOコード,気温(°C),露点温度(°C),風向(°),風速(kt),最大瞬間風速(kt),視程(m),気圧(hPa),現在天気,雲の状態,原文
2026-01-03T00:50:45.953062+09:00,成田,RJAA,1,-1,320,7,,9999,1007,,,RJAA 021530Z AUTO 32007KT 240V010 9999 NSC 01/M01 Q1007 NOSIG RMK A2976
2026-01-03T01:19:28.755854+09:00,成田,RJAA,0,-1,270,3,,9999,1008,,,RJAA 021600Z AUTO 27003KT 240V310 9999 NSC 00/M01 Q1008 NOSIG RMK A2977
2026-01-03T01:44:46.827716+09:00,成田,RJAA,0,-1,330,3,,9999,1008,,,RJAA 021630Z AUTO 33003KT 9999 NSC 00/M01 Q1008 NOSIG RMK A2978
