取得日時,空港名,ICAOコード,気温(°C),露点温度(°C),風向(°),風速(kt),最大瞬間風速(kt),視程(m),気圧(hPa),現在天気,雲の状態,原文
2026-01-11T00:14:53.929357+09:00,成田,RJAA,15,9,200,14,25,9999,1005,,FEW31,RJAA 101500Z AUTO 20014G25KT 170V240 9999 FEW031 15/09 Q1005 NOSIG RMK A2968
2026-01-11T00:33:47.024625+09:00,成田,RJAA,15,9,200,14,25,9999,1005,,FEW31,RJAA 101500Z AUTO 20014G25KT 170V240 9999 FEW031 15/09 Q1005 NOSIG RMK A2968
2026-01-11T00:46:07.945992+09:00,成田,RJAA,15,9,210,14,,9999,1005,,FEW32,RJAA 101530Z AUTO 21014KT 170V240 9999 FEW032 //////CB 15/09 Q1005 TEMPO 21015G25KT
2026-01-11T01:18:18.804392+09:00,成田,RJAA,15,9,200,15,,9999,1004,,,RJAA 101600Z AUTO 20015KT 150V240 9999 NSC 15/09 Q1004 TEMPO 20015G25KT RMK A2966
2026-01-11T01:43:06.047666+09:00,成田,RJAA,15,10,200,15,27,9999,1004,,,RJAA 101630Z AUTO 20015G27KT 170V230 9999 NCD 15/10 Q1004 NOSIG RMK A2965
2026-01-11T02:13:26.334683+09:00,成田,RJAA,15,10,210,14,,9999,1003,,,RJAA 101700Z AUTO 21014KT 170V240 9999 NSC 15/10 Q1003 TEMPO 21015G25KT
2026-01-11T02:33:14.619552+09:00,成田,RJAA,15,10,210,14,,9999,1003,,,METAR RJAA 101700Z AUTO 21014KT 170V240 9999 NSC 15/10 Q1003 TEMPO 21015G25KT
2026-01-11T02:46:00.453537+09:00,成田,RJAA,15,10,200,12,,9999,1003,,FEW32 SCT40,RJAA 101730Z AUTO 20012KT 9999 FEW032 SCT040 15/10 Q1003 TEMPO 21015G25KT
