timestamp,airport,icao,temperature_c,dewpoint_c,wind_dir_deg,wind_speed_kt,wind_gust_kt,visibility_m,pressure_hpa,weather,clouds,raw
2025-12-17T00:44:13.123030+09:00,SJW,ZBSJ,-3,-5,,1,,9999,1029,,,ZBSJ 161500Z VRB01MPS CAVOK M03/M05 Q1029 NOSIG
2025-12-17T01:59:08.128160+09:00,SJW,ZBSJ,-4,-5,,1,,9999,1029,,,ZBSJ 161600Z VRB01MPS CAVOK M04/M05 Q1029 NOSIG
