timestamp,airport,icao,temperature_c,dewpoint_c,wind_dir_deg,wind_speed_kt,wind_gust_kt,visibility_m,pressure_hpa,weather,clouds,raw
2025-12-19T00:44:12.651998+09:00,DLC,ZYTL,8,3,190,7,,9999,1016,,FEW26,ZYTL 181530Z 19007MPS 160V220 9999 FEW026 08/03 Q1016 NOSIG
2025-12-19T01:58:14.656846+09:00,DLC,ZYTL,8,3,190,7,,9999,1016,,FEW26,ZYTL 181630Z 19007MPS 140V230 9999 FEW026 08/03 Q1016 NOSIG
2025-12-19T02:48:32.471831+09:00,DLC,ZYTL,8,4,180,5,,9999,1016,,FEW26,METAR ZYTL 181730Z 18005MPS 140V220 9999 FEW026 08/04 Q1016 NOSIG
2025-12-19T03:57:51.388110+09:00,DLC,ZYTL,8,4,200,5,10,9999,1016,,FEW26,ZYTL 181830Z 20005G10MPS 180V240 9999 FEW026 08/04 Q1016 NOSIG
2025-12-19T04:27:58.075192+09:00,DLC,ZYTL,8,4,190,6,,9999,1015,,FEW26,ZYTL 181900Z 19006MPS 160V220 9999 FEW026 08/04 Q1015 NOSIG
2025-12-19T04:44:23.356195+09:00,DLC,ZYTL,8,4,190,6,12,9999,1015,,FEW26,ZYTL 181930Z 19006G12MPS 150V220 9999 FEW026 08/04 Q1015 NOSIG
2025-12-19T05:37:57.496254+09:00,DLC,ZYTL,8,5,190,5,,9999,1014,,FEW26,ZYTL 182030Z 19005MPS 140V220 9999 FEW026 08/05 Q1014 NOSIG
2025-12-19T05:52:53.304146+09:00,DLC,ZYTL,8,5,190,5,,9999,1014,,FEW26,ZYTL 182030Z 19005MPS 140V220 9999 FEW026 08/05 Q1014 NOSIG
