timestamp,airport,icao,temperature_c,dewpoint_c,wind_dir_deg,wind_speed_kt,wind_gust_kt,visibility_m,pressure_hpa,weather,clouds,raw
2025-12-15T19:20:26.747892+09:00,NRT,RJAA,7,-5,310,4,,9999,1017,,FEW30,RJAA 151000Z 31004KT 9999 FEW030 07/M05 Q1017 NOSIG RMK 1CU030 A3006
2025-12-15T19:21:41.323703+09:00,NRT,RJAA,7,-5,310,4,,9999,1017,,FEW30,RJAA 151000Z 31004KT 9999 FEW030 07/M05 Q1017 NOSIG RMK 1CU030 A3006
2025-12-15T19:54:35.206513+09:00,NRT,RJAA,7,-5,320,8,,9999,1017,,FEW30,RJAA 151030Z 32008KT 9999 FEW030 07/M05 Q1017 NOSIG RMK 1CU030 A3006
2025-12-15T20:35:55.987941+09:00,NRT,RJAA,6,-4,330,7,,9999,1018,,FEW30,RJAA 151100Z 33007KT 9999 FEW030 06/M04 Q1018 NOSIG RMK 1CU030 A3007
2025-12-15T20:49:48.493405+09:00,NRT,RJAA,5,-4,330,6,,9999,1018,,FEW30,RJAA 151130Z 33006KT 9999 FEW030 05/M04 Q1018 NOSIG RMK 1CU030 A3008
2025-12-15T22:53:40.907318+09:00,NRT,RJAA,5,-4,320,9,,9999,1018,,FEW30,RJAA 151330Z 32009KT 9999 FEW030 05/M04 Q1018 NOSIG RMK 1CU030 A3008
2025-12-15T23:56:39.288281+09:00,NRT,RJAA,4,-4,330,7,,9999,1018,,,RJAA 151430Z AUTO 33007KT 9999 NCD 04/M04 Q1018 NOSIG RMK A3009
