timestamp,airport,icao,temperature_c,dewpoint_c,wind_dir_deg,wind_speed_kt,wind_gust_kt,visibility_m,pressure_hpa,weather,clouds,raw
2025-12-16T00:51:35.315095+09:00,HND,RJTT,8,-4,320,13,,9999,1019,,FEW50,RJTT 151530Z 32013KT 9999 FEW050 08/M04 Q1019 NOSIG RMK 2SC050 A3010
2025-12-16T02:01:48.364525+09:00,HND,RJTT,7,-5,330,13,,9999,1019,,SCT45,RJTT 151630Z 33013KT 9999 SCT045 07/M05 Q1019 NOSIG RMK 3SC045 A3011
2025-12-16T02:51:46.702073+09:00,HND,RJTT,8,-3,340,11,,9999,1020,,BKN50,RJTT 151730Z 34011KT 9999 BKN050 08/M03 Q1020 NOSIG RMK 5SC050 A3012
