timestamp,airport,icao,temperature_c,dewpoint_c,wind_dir_deg,wind_speed_kt,wind_gust_kt,visibility_m,pressure_hpa,weather,clouds,raw
2025-12-19T00:44:09.002318+09:00,HND,RJTT,7,-2,10,10,,9999,1027,,BKN60,RJTT 181530Z 01010KT 9999 BKN060 07/M02 Q1027 NOSIG RMK 5SC060 A3035
2025-12-19T01:58:14.159955+09:00,HND,RJTT,7,-2,360,7,,9999,1028,,BKN50,RJTT 181630Z 36007KT 9999 BKN050 07/M02 Q1028 NOSIG RMK 6SC050 A3036
