取得日時,空港名,ICAOコード,気温(°C),露点温度(°C),風向(°),風速(kt),最大瞬間風速(kt),視程(m),気圧(hPa),現在天気,雲の状態,原文
2026-01-02T00:16:37.456246+09:00,羽田,RJTT,7,-6,340,9,,9999,1010,,BKN45,RJTT 011500Z 34009KT 9999 BKN045 07/M06 Q1010 NOSIG RMK 7SC045 A2982
2026-01-02T00:36:08.371799+09:00,羽田,RJTT,7,-6,340,9,,9999,1010,,BKN45,RJTT 011500Z 34009KT 9999 BKN045 07/M06 Q1010 NOSIG RMK 7SC045 A2982
2026-01-02T00:48:35.500761+09:00,羽田,RJTT,7,-7,340,8,,9999,1009,,FEW30 SCT50 BKN80,RJTT 011530Z 34008KT 9999 FEW030 SCT050 BKN080 07/M07 Q1009 NOSIG RMK 1CU030 4SC050 6AC080 A2982
2026-01-02T01:20:25.441016+09:00,羽田,RJTT,7,-5,340,13,,9999,1009,,FEW30 SCT45 BKN80,RJTT 011600Z 34013KT 9999 FEW030 SCT045 BKN080 07/M05 Q1009 NOSIG RMK 1CU030 4SC045 6AC080 A2981
2026-01-02T01:54:23.130347+09:00,羽田,RJTT,7,-3,350,10,,9999,1009,,BKN45,RJTT 011630Z 35010KT 9999 BKN045 07/M03 Q1009 NOSIG RMK 7SC045 A2982
2026-01-02T02:15:51.945249+09:00,羽田,RJTT,6,-6,350,12,,9999,1009,,FEW30 SCT50 BKN70,RJTT 011700Z 35012KT 9999 FEW030 SCT050 BKN070 06/M06 Q1009 NOSIG RMK 1CU030 4SC050 6AC070 A2982
2026-01-02T02:35:39.997989+09:00,羽田,RJTT,6,-6,350,12,,9999,1009,,FEW30 SCT50 BKN70,RJTT 011700Z 35012KT 9999 FEW030 SCT050 BKN070 06/M06 Q1009 NOSIG RMK 1CU030 4SC050 6AC070 A2982
2026-01-02T02:47:46.435114+09:00,羽田,RJTT,7,-4,340,14,,9999,1009,,FEW30 BKN50,RJTT 011730Z 34014KT 9999 FEW030 BKN050 07/M04 Q1009 NOSIG RMK 1CU030 7SC050 A2982
2026-01-02T03:55:32.384769+09:00,羽田,RJTT,7,-4,360,14,,9999,1009,,FEW30 BKN50,RJTT 011830Z 36014KT 9999 FEW030 BKN050 07/M04 Q1009 NOSIG RMK 1CU030 7SC050 A2981
2026-01-02T04:14:21.465564+09:00,羽田,RJTT,7,-5,350,11,,9999,1009,,FEW30 BKN50,RJTT 011900Z 35011KT 9999 FEW030 BKN050 07/M05 Q1009 NOSIG RMK 1CU030 7SC050 A2981
2026-01-02T04:30:01.096233+09:00,羽田,RJTT,7,-5,350,11,,9999,1009,,FEW30 BKN50,RJTT 011900Z 35011KT 9999 FEW030 BKN050 07/M05 Q1009 NOSIG RMK 1CU030 7SC050 A2981
2026-01-02T04:44:40.841851+09:00,羽田,RJTT,6,-5,350,8,,9999,1009,,FEW30 BKN50,RJTT 011930Z 35008KT 9999 FEW030 BKN050 06/M05 Q1009 NOSIG RMK 1CU030 7SC050 A2982
2026-01-02T05:18:16.774466+09:00,羽田,RJTT,5,-6,330,12,,9999,1009,,FEW30 BKN60,RJTT 012000Z 33012KT 9999 FEW030 BKN060 05/M06 Q1009 NOSIG RMK 1CU030 6SC060 A2982
2026-01-02T05:40:45.781700+09:00,羽田,RJTT,6,-4,340,9,,9999,1009,,FEW30 SCT60,RJTT 012030Z 34009KT 9999 FEW030 SCT060 06/M04 Q1009 NOSIG
2026-01-02T06:15:08.194488+09:00,羽田,RJTT,5,-5,340,11,,9999,1009,,FEW30 SCT60,RJTT 012100Z 34011KT 9999 FEW030 SCT060 05/M05 Q1009 NOSIG RMK 1CU030 4SC060 A2982
2026-01-02T06:33:11.297246+09:00,羽田,RJTT,5,-5,340,11,,9999,1009,,FEW30 SCT60,RJTT 012100Z 34011KT 9999 FEW030 SCT060 05/M05 Q1009 NOSIG RMK 1CU030 4SC060 A2982
2026-01-02T06:46:13.019310+09:00,羽田,RJTT,5,-5,330,12,,9999,1009,,FEW30 BKN60,RJTT 012130Z 33012KT 9999 FEW030 BKN060 05/M05 Q1009 NOSIG RMK 1CU030 6SC060 A2982
2026-01-02T07:15:19.620926+09:00,羽田,RJTT,5,-6,320,10,,9999,1009,,FEW30 BKN60,RJTT 012200Z 32010KT 9999 FEW030 BKN060 05/M06 Q1009 NOSIG RMK 1CU030 6SC060 A2982
2026-01-02T07:38:00.519067+09:00,羽田,RJTT,5,-6,320,10,,9999,1009,,FEW30 BKN60,RJTT 012200Z 32010KT 9999 FEW030 BKN060 05/M06 Q1009 NOSIG RMK 1CU030 6SC060 A2982
2026-01-02T07:51:05.009147+09:00,羽田,RJTT,5,-6,320,11,,9999,1009,,FEW30 BKN60,RJTT 012230Z 32011KT 9999 FEW030 BKN060 05/M06 Q1009 NOSIG RMK 1CU030 5SC060 A2982
2026-01-02T08:15:34.834629+09:00,羽田,RJTT,6,-6,320,8,,9999,1009,,FEW30 BKN60,RJTT 012300Z 32008KT 9999 FEW030 BKN060 06/M06 Q1009 NOSIG RMK 1CU030 6SC060 A2982
2026-01-02T08:33:32.945971+09:00,羽田,RJTT,6,-6,320,8,,9999,1009,,FEW30 BKN60,RJTT 012300Z 32008KT 9999 FEW030 BKN060 06/M06 Q1009 NOSIG RMK 1CU030 6SC060 A2982
2026-01-02T08:47:04.317941+09:00,羽田,RJTT,7,-4,20,9,,9999,1010,,FEW30 BKN60,RJTT 012330Z 02009KT 9999 FEW030 BKN060 07/M04 Q1010 NOSIG RMK 1CU030 6SC060 A2983
2026-01-02T10:17:22.676993+09:00,羽田,RJTT,7,-3,10,8,,9999,1009,,FEW30 SCT50,RJTT 020100Z 01008KT 9999 FEW030 SCT050 07/M03 Q1009 NOSIG RMK 1CU030 3SC050 A2982
2026-01-02T12:09:42.050764+09:00,羽田,RJTT,8,0,40,6,,9999,1007,,FEW20,RJTT 020300Z 04006KT 9999 FEW020 08/00 Q1007 NOSIG RMK 1CU020 A2976
2026-01-02T13:11:45.710245+09:00,羽田,RJTT,8,1,50,7,,9999,1006,,FEW20 SCT50,RJTT 020400Z 05007KT 9999 FEW020 SCT050 08/01 Q1006 NOSIG RMK 1CU020 3CU050 A2972
2026-01-02T13:55:11.595107+09:00,羽田,RJTT,8,1,70,7,,9999,1006,,FEW20 SCT50,RJTT 020430Z 07007KT 9999 FEW020 SCT050 08/01 Q1006 NOSIG RMK 1CU020 3CU050 A2971
2026-01-02T14:21:01.603196+09:00,羽田,RJTT,9,1,110,7,,9999,1005,,FEW20,RJTT 020500Z 11007KT 070V130 9999 FEW020 09/01 Q1005 NOSIG RMK 1CU020 A2970
2026-01-02T14:51:55.970111+09:00,羽田,RJTT,9,-1,130,3,,9999,1005,,FEW20,RJTT 020530Z 13003KT 070V200 9999 FEW020 09/M01 Q1005 NOSIG RMK 1CU020 A2969
2026-01-02T15:26:15.028096+09:00,羽田,RJTT,9,-1,110,4,,9999,1005,,FEW20,RJTT 020600Z 11004KT 9999 FEW020 09/M01 Q1005 NOSIG RMK 1CU020 A2968
2026-01-02T15:59:21.478716+09:00,羽田,RJTT,8,-1,60,6,,9999,1005,,FEW20,RJTT 020630Z 06006KT 030V110 9999 FEW020 08/M01 Q1005 BECMG 04006KT RMK 1CU020 A2968
2026-01-02T16:29:30.388415+09:00,羽田,RJTT,9,0,70,8,,9999,1004,,FEW20,RJTT 020700Z 07008KT 9999 FEW020 09/00 Q1004 BECMG 04006KT RMK 1CU020 A2967 MOD TURB OBS AT 0650Z DOLBA BTN FL170 AND FL150 IN DES BY B789
2026-01-02T16:48:05.614769+09:00,羽田,RJTT,9,3,80,9,,9999,1004,,FEW20,RJTT 020730Z 08009KT 9999 FEW020 09/03 Q1004 BECMG 04010KT RMK 1CU020 A2967
2026-01-02T17:23:03.825437+09:00,羽田,RJTT,7,4,60,18,,9999,1005,,FEW20 BKN60,RJTT 020800Z 06018KT 9999 FEW020 BKN060 07/04 Q1005 BECMG 04018KT RMK 1CU020 7SC060 A2968
2026-01-02T17:56:36.157172+09:00,羽田,RJTT,7,4,50,20,,9999,1005,,SCT15 BKN50,RJTT 020830Z 05020KT 9999 SCT015 BKN050 07/04 Q1005 BECMG TL1000 34020KT RMK 3CU015 7SC050 A2969 MOD TURB OBS AT 0819Z 3NM RWY34L 1000FT BY B789
2026-01-02T18:23:05.344973+09:00,羽田,RJTT,6,3,20,17,,9999,1006,,BKN14 BKN50,RJTT 020900Z 02017KT 9999 BKN014 BKN050 06/03 Q1006 TEMPO FM1000 34020G30KT 4000 -SHSNRA RMK 5CU014 7SC050 A2971 MOD TURB OBS AT 0830Z 5NM RWY34L 1500FT BY A35K AND MOD TURB OBS AT 0843Z TAURA BTN 11000FT AND FL150 IN CMB BY A21N
2026-01-02T18:50:00.605699+09:00,羽田,RJTT,6,3,20,17,,9999,1006,,BKN14 BKN50,RJTT 020900Z 02017KT 9999 BKN014 BKN050 06/03 Q1006 TEMPO FM1000 34020G30KT 4000 -SHSNRA RMK 5CU014 7SC050 A2971 MOD TURB OBS AT 0830Z 5NM RWY34L 1500FT BY A35K AND MOD TURB OBS AT 0843Z TAURA BTN 11000FT AND FL150 IN CMB BY A21N
2026-01-02T22:18:42.124137+09:00,羽田,RJTT,2,1,30,15,,9999,1008,,BKN7 BKN60,RJTT 021300Z 03015KT 9999 BKN007 BKN060 02/01 Q1008 BECMG FEW008 BKN015 RMK 5CU007 7SC060 A2979
2026-01-02T22:46:30.321845+09:00,羽田,RJTT,2,1,30,10,,9999,1008,,BKN8 BKN60,RJTT 021330Z 03010KT 9999 BKN008 BKN060 02/01 Q1008 BECMG FEW008 BKN015
