取得日時,空港名,ICAOコード,気温(°C),露点温度(°C),風向(°),風速(kt),最大瞬間風速(kt),視程(m),気圧(hPa),現在天気,雲の状態,原文
2026-01-03T00:17:28.318706+09:00,羽田,RJTT,3,0,20,8,,9999,1008,,FEW10 BKN110,RJTT 021500Z 02008KT 330V050 9999 FEW010 BKN110 03/00 Q1008 NOSIG RMK 1CU010 7AC110 A2979
2026-01-03T00:38:16.752788+09:00,羽田,RJTT,3,0,20,8,,9999,1008,,FEW10 BKN110,RJTT 021500Z 02008KT 330V050 9999 FEW010 BKN110 03/00 Q1008 NOSIG RMK 1CU010 7AC110 A2979
2026-01-03T00:50:46.997842+09:00,羽田,RJTT,2,0,10,6,,9999,1009,,FEW10 BKN130,RJTT 021530Z 01006KT 340V050 9999 FEW010 BKN130 02/M00 Q1009 NOSIG RMK 1CU010 7AC130 A2980
2026-01-03T01:19:29.314818+09:00,羽田,RJTT,2,0,20,6,,9999,1009,,FEW10 BKN160,RJTT 021600Z 02006KT 9999 FEW010 BKN160 02/M00 Q1009 NOSIG RMK 1CU010 7AC160 A2979
