取得日時,空港名,ICAOコード,気温(°C),露点温度(°C),風向(°),風速(kt),最大瞬間風速(kt),視程(m),気圧(hPa),現在天気,雲の状態,原文
2026-01-01T00:16:24.595455+09:00,羽田,RJTT,8,4,10,11,,9999,1011,,FEW30 BKN170,RJTT 311500Z 01011KT 9999 FEW030 BKN170 08/04 Q1011 NOSIG RMK 1CU030 7AC170 A2987
2026-01-01T00:35:51.638241+09:00,羽田,RJTT,8,4,10,11,,9999,1011,,FEW30 BKN170,RJTT 311500Z 01011KT 9999 FEW030 BKN170 08/04 Q1011 NOSIG RMK 1CU030 7AC170 A2987
2026-01-01T00:48:12.766609+09:00,羽田,RJTT,8,4,10,10,,9999,1010,,FEW25 BKN60,RJTT 311530Z 01010KT 9999 FEW025 BKN060 08/04 Q1010 NOSIG RMK 1CU025 7SC060 A2985
2026-01-01T01:20:09.218580+09:00,羽田,RJTT,8,5,20,14,,9999,1010,,SCT50,RJTT 311600Z 02014KT 9999 SCT050 08/05 Q1010 NOSIG RMK 4SC050 A2984
2026-01-01T01:45:16.032827+09:00,羽田,RJTT,7,4,20,11,,9999,1010,,FEW30 BKN50,RJTT 311630Z 02011KT 9999 FEW030 BKN050 07/04 Q1010 NOSIG RMK 1CU030 7SC050 A2984
2026-01-01T02:14:17.567559+09:00,羽田,RJTT,6,3,30,12,,9999,1010,,BKN50,RJTT 311700Z 03012KT 9999 BKN050 06/03 Q1010 NOSIG RMK 7SC050 A2985
2026-01-01T02:34:12.599691+09:00,羽田,RJTT,6,3,30,12,,9999,1010,,BKN50,RJTT 311700Z 03012KT 9999 BKN050 06/03 Q1010 NOSIG RMK 7SC050 A2985
2026-01-01T02:46:26.737694+09:00,羽田,RJTT,6,3,20,11,,9999,1010,,BKN50,RJTT 311730Z 02011KT 9999 BKN050 06/03 Q1010 NOSIG RMK 7SC050 A2985
2026-01-01T03:22:55.946250+09:00,羽田,RJTT,6,2,10,10,,9999,1010,,FEW30 BKN60,RJTT 311800Z 01010KT 9999 FEW030 BKN060 06/02 Q1010 NOSIG RMK 1CU030 7SC060 A2985
2026-01-01T03:54:43.128626+09:00,羽田,RJTT,6,2,10,9,,9999,1011,,FEW30 BKN60,RJTT 311830Z 01009KT 9999 FEW030 BKN060 06/02 Q1011 NOSIG RMK 1CU030 7SC060 A2985
2026-01-01T04:12:19.355079+09:00,羽田,RJTT,6,2,10,9,,9999,1010,,FEW30 BKN60,RJTT 311900Z 01009KT 9999 FEW030 BKN060 06/02 Q1010 NOSIG
2026-01-01T04:29:01.828462+09:00,羽田,RJTT,6,2,10,9,,9999,1010,,FEW30 BKN60,RJTT 311900Z 01009KT 9999 FEW030 BKN060 06/02 Q1010 NOSIG RMK 1CU030 7SC060 A2984
2026-01-01T04:44:34.287946+09:00,羽田,RJTT,6,2,10,10,,9999,1010,,FEW30 BKN60,RJTT 311930Z 01010KT 9999 FEW030 BKN060 06/02 Q1010 NOSIG RMK 1CU030 7SC060 A2984
2026-01-01T05:17:12.229084+09:00,羽田,RJTT,6,2,20,9,,9999,1011,,FEW30 BKN50,RJTT 312000Z 02009KT 9999 FEW030 BKN050 06/02 Q1011 NOSIG RMK 1CU030 7SC050 A2985
2026-01-01T05:38:33.809916+09:00,羽田,RJTT,6,2,20,9,,9999,1011,,FEW30 BKN50,RJTT 312000Z 02009KT 9999 FEW030 BKN050 06/02 Q1011 NOSIG RMK 1CU030 7SC050 A2985
2026-01-01T05:50:57.202189+09:00,羽田,RJTT,6,2,10,9,,9999,1011,,FEW30 BKN50,RJTT 312030Z 01009KT 9999 FEW030 BKN050 06/02 Q1011 NOSIG RMK 1CU030 7SC050 A2986
2026-01-01T06:14:08.264397+09:00,羽田,RJTT,6,1,10,9,,9999,1011,,FEW30 BKN50,RJTT 312100Z 01009KT 9999 FEW030 BKN050 06/01 Q1011 NOSIG RMK 1CU030 7SC050 A2987
2026-01-01T06:31:57.106826+09:00,羽田,RJTT,6,1,10,9,,9999,1011,,FEW30 BKN50,RJTT 312100Z 01009KT 9999 FEW030 BKN050 06/01 Q1011 NOSIG RMK 1CU030 7SC050 A2987
2026-01-01T06:46:06.410159+09:00,羽田,RJTT,6,1,20,10,,9999,1011,,FEW30 BKN50,RJTT 312130Z 02010KT 9999 FEW030 BKN050 06/01 Q1011 NOSIG RMK 1CU030 7SC050 A2987
2026-01-01T07:16:06.248084+09:00,羽田,RJTT,5,1,20,10,,9999,1011,,FEW30 BKN50,RJTT 312200Z 02010KT 9999 FEW030 BKN050 05/01 Q1011 NOSIG RMK 1CU030 6SC050 A2988
2026-01-01T07:38:21.999287+09:00,羽田,RJTT,5,1,20,10,,9999,1011,,FEW30 BKN50,RJTT 312200Z 02010KT 9999 FEW030 BKN050 05/01 Q1011 NOSIG RMK 1CU030 6SC050 A2988
2026-01-01T07:50:44.581419+09:00,羽田,RJTT,5,1,20,9,,9999,1011,,FEW30 BKN50,RJTT 312230Z 02009KT 9999 FEW030 BKN050 05/01 Q1011 NOSIG RMK 1CU030 5SC050 A2988
2026-01-01T08:15:27.027809+09:00,羽田,RJTT,5,1,10,10,,9999,1012,,FEW30,RJTT 312300Z 01010KT 9999 FEW030 05/01 Q1012 NOSIG RMK 1CU030 A2988
2026-01-01T08:33:07.207904+09:00,羽田,RJTT,5,1,10,10,,9999,1012,,FEW30,RJTT 312300Z 01010KT 9999 FEW030 05/01 Q1012 NOSIG RMK 1CU030 A2988
2026-01-01T08:46:41.056362+09:00,羽田,RJTT,5,0,20,10,,9999,1012,,FEW30,RJTT 312330Z 02010KT 9999 FEW030 05/00 Q1012 NOSIG RMK 1CU030 A2989
2026-01-01T10:23:26.993393+09:00,羽田,RJTT,7,0,30,8,,9999,1012,,FEW30,RJTT 010100Z 03008KT 9999 FEW030 07/00 Q1012 NOSIG RMK 1CU030 A2990
2026-01-01T12:27:54.548639+09:00,羽田,RJTT,8,-2,40,6,,9999,1010,,FEW30,RJTT 010300Z 04006KT 9999 FEW030 08/M02 Q1010 NOSIG RMK 1CU030 A2983
2026-01-01T13:35:35.151810+09:00,羽田,RJTT,9,-3,70,6,,9999,1009,,FEW30,RJTT 010400Z 07006KT 030V110 9999 FEW030 09/M03 Q1009 NOSIG RMK 1CU030 A2982
2026-01-01T14:03:51.650636+09:00,羽田,RJTT,9,-3,60,6,,9999,1009,,FEW30,RJTT 010430Z 06006KT 030V090 9999 FEW030 09/M03 Q1009 NOSIG RMK 1CU030 A2981
2026-01-01T14:44:39.463470+09:00,羽田,RJTT,9,-2,100,4,,9999,1009,,FEW30,RJTT 010530Z 10004KT 060V120 9999 FEW030 09/M02 Q1009 BECMG FM0700 05006KT RMK 1CU030 A2982
2026-01-01T15:26:05.537064+09:00,羽田,RJTT,9,-2,110,4,,9999,1009,,FEW30,RJTT 010600Z 11004KT 080V150 9999 FEW030 09/M02 Q1009 BECMG FM0730 05006KT RMK 1CU030 A2981
2026-01-01T15:58:48.108990+09:00,羽田,RJTT,9,-3,100,4,,9999,1009,,FEW30,RJTT 010630Z 10004KT 070V130 9999 FEW030 09/M03 Q1009 BECMG FM0800 05006KT RMK 1CU030 A2982
2026-01-01T16:27:26.717569+09:00,羽田,RJTT,9,-3,90,3,,9999,1009,,FEW30,RJTT 010700Z 09003KT 9999 FEW030 09/M03 Q1009 BECMG FM0800 02008KT RMK 1CU030 A2981
2026-01-01T16:47:14.934288+09:00,羽田,RJTT,8,-3,120,3,,9999,1009,,FEW30 BKNNone,RJTT 010730Z 12003KT 060V150 9999 FEW030 BKN/// 08/M03 Q1009 BECMG FM0800 TL0900 02008KT RMK 1CU030 A2982
2026-01-01T17:22:57.713825+09:00,羽田,RJTT,7,-3,120,2,,9999,1010,,,RJTT 010800Z 12002KT CAVOK 07/M03 Q1010 BECMG 03006KT RMK A2982
2026-01-01T17:56:06.590582+09:00,羽田,RJTT,8,-4,120,1,,9999,1010,,,RJTT 010830Z 12001KT CAVOK 08/M04 Q1010 BECMG TL1000 04006KT RMK A2983
2026-01-01T18:22:18.950966+09:00,羽田,RJTT,8,-3,,2,,9999,1010,,,RJTT 010900Z VRB02KT CAVOK 08/M03 Q1010 BECMG TL1000 36007KT RMK A2983
2026-01-01T18:49:29.490983+09:00,羽田,RJTT,8,-2,,2,,9999,1010,,FEW50 BKNNone,RJTT 010930Z VRB02KT 9999 FEW050 BKN/// 08/M02 Q1010 BECMG TL1000 05006KT RMK 1SC050 A2983
2026-01-01T19:17:56.433037+09:00,羽田,RJTT,8,-3,,2,,9999,1010,,FEW30 BKNNone,RJTT 011000Z VRB02KT 9999 FEW030 BKN/// 08/M03 Q1010 BECMG TL1030 36007KT RMK 1CU030 A2984
2026-01-01T19:42:33.631135+09:00,羽田,RJTT,9,-3,,1,,9999,1010,,FEW30 BKN140,RJTT 011030Z VRB01KT 9999 FEW030 BKN140 09/M03 Q1010 BECMG 35012KT
2026-01-01T20:14:03.691348+09:00,羽田,RJTT,9,-4,,1,,9999,1010,,FEW30 BKN130,RJTT 011100Z VRB01KT 9999 FEW030 BKN130 09/M04 Q1010 BECMG TL1200 36012KT RMK 1CU030 7AC130 A2984
2026-01-01T20:30:53.933897+09:00,羽田,RJTT,9,-4,,1,,9999,1010,,FEW30 BKN130,RJTT 011100Z VRB01KT 9999 FEW030 BKN130 09/M04 Q1010 BECMG TL1200 36012KT RMK 1CU030 7AC130 A2984
2026-01-01T20:45:44.659465+09:00,羽田,RJTT,9,-3,,2,,9999,1010,,FEW30 SCT60 BKN130,RJTT 011130Z VRB02KT 9999 FEW030 SCT060 BKN130 09/M03 Q1010 BECMG TL1230 35013KT RMK 1CU030 3SC060 7AC130 A2984
2026-01-01T21:32:35.266951+09:00,羽田,RJTT,9,-3,90,3,,9999,1010,,FEW30 SCT40 BKN70,RJTT 011200Z 09003KT 9999 FEW030 SCT040 BKN070 09/M03 Q1010 BECMG TL1230 35010KT RMK 1CU030 3SC040 5AC070 A2984
