取得日時,空港名,ICAOコード,気温(°C),露点温度(°C),風向(°),風速(kt),最大瞬間風速(kt),視程(m),気圧(hPa),現在天気,雲の状態,原文
2026-01-04T00:15:01.806390+09:00,羽田,RJTT,5,-6,310,9,,9999,1015,,FEW30,RJTT 031500Z 31009KT 9999 FEW030 05/M06 Q1015 NOSIG RMK 1CU030 A2999
2026-01-04T00:33:05.490319+09:00,羽田,RJTT,5,-6,310,9,,9999,1015,,FEW30,RJTT 031500Z 31009KT 9999 FEW030 05/M06 Q1015 NOSIG RMK 1CU030 A2999
2026-01-04T00:46:11.798675+09:00,羽田,RJTT,6,-7,320,12,,9999,1015,,FEW30,RJTT 031530Z 32012KT 9999 FEW030 06/M07 Q1015 NOSIG RMK 1CU030 A2998
2026-01-04T01:18:41.081152+09:00,羽田,RJTT,5,-8,330,13,,9999,1015,,FEW30,RJTT 031600Z 33013KT 9999 FEW030 05/M08 Q1015 NOSIG RMK 1CU030 A2999
2026-01-04T01:43:36.928439+09:00,羽田,RJTT,5,-7,320,13,,9999,1015,,FEW30,RJTT 031630Z 32013KT 9999 FEW030 05/M07 Q1015 NOSIG RMK 1CU030 A2999
