取得日時,空港名,ICAOコード,気温(°C),露点温度(°C),風向(°),風速(kt),最大瞬間風速(kt),視程(m),気圧(hPa),現在天気,雲の状態,原文
2025-12-30T00:17:52.159329+09:00,羽田,RJTT,10,3,360,5,,9999,1015,,,RJTT 291500Z 36005KT 240V050 CAVOK 10/03 Q1015 NOSIG RMK A2997
2025-12-30T00:39:27.845647+09:00,羽田,RJTT,8,3,320,6,,9999,1014,,,RJTT 291530Z 32006KT 250V340 CAVOK 08/03 Q1014 NOSIG
2025-12-30T00:52:30.096250+09:00,羽田,RJTT,8,3,320,6,,9999,1014,,,RJTT 291530Z 32006KT 250V340 CAVOK 08/03 Q1014 NOSIG RMK A2997
