取得日時,空港名,ICAOコード,気温(°C),露点温度(°C),風向(°),風速(kt),最大瞬間風速(kt),視程(m),気圧(hPa),現在天気,雲の状態,原文
2026-01-05T00:14:35.105648+09:00,羽田,RJTT,6,1,280,3,,9999,1012,,,RJTT 041500Z 28003KT 180V360 CAVOK 06/01 Q1012 NOSIG
2026-01-05T00:33:15.126138+09:00,羽田,RJTT,6,1,280,3,,9999,1012,,,RJTT 041500Z 28003KT 180V360 CAVOK 06/01 Q1012 NOSIG
2026-01-05T00:46:12.115128+09:00,羽田,RJTT,5,1,280,3,,9999,1012,,,RJTT 041530Z 28003KT 240V300 CAVOK 05/01 Q1012 NOSIG
2026-01-05T01:18:27.479241+09:00,羽田,RJTT,4,0,300,5,,9999,1012,,,RJTT 041600Z 30005KT CAVOK 04/00 Q1012 NOSIG
2026-01-05T01:43:06.590081+09:00,羽田,RJTT,4,0,280,6,,9999,1012,,,RJTT 041630Z 28006KT CAVOK 04/00 Q1012 NOSIG
2026-01-05T02:13:12.805474+09:00,羽田,RJTT,5,0,300,6,,9999,1012,,,RJTT 041700Z 30006KT CAVOK 05/00 Q1012 NOSIG
2026-01-05T02:33:17.436660+09:00,羽田,RJTT,5,0,300,6,,9999,1012,,,RJTT 041700Z 30006KT CAVOK 05/00 Q1012 NOSIG
