取得日時,空港名,ICAOコード,気温(°C),露点温度(°C),風向(°),風速(kt),最大瞬間風速(kt),視程(m),気圧(hPa),現在天気,雲の状態,原文
2026-01-07T00:17:57.098773+09:00,羽田,RJTT,6,-5,330,11,,9999,1017,,FEW30,METAR RJTT 061200Z 33011KT 9999 FEW030 06/M05 Q1017 NOSIG RMK 1CU030 A3006
2026-01-07T00:41:36.549827+09:00,羽田,RJTT,6,-6,10,11,,9999,1017,,FEW30 BKN50,RJTT 061530Z 01011KT 9999 FEW030 BKN050 06/M06 Q1017 NOSIG
2026-01-07T01:21:46.832640+09:00,羽田,RJTT,6,-6,360,10,,9999,1018,,FEW30 BKN50,RJTT 061600Z 36010KT 9999 FEW030 BKN050 06/M06 Q1018 NOSIG RMK 1CU030 6SC050 A3006
2026-01-07T01:58:22.806597+09:00,羽田,RJTT,6,-6,10,10,,9999,1018,,FEW30 BKN50,RJTT 061630Z 01010KT 9999 FEW030 BKN050 06/M06 Q1018 NOSIG RMK 1CU030 6SC050 A3006
2026-01-07T02:26:16.154370+09:00,羽田,RJTT,5,-6,20,8,,9999,1018,,FEW30 BKN50,RJTT 061700Z 02008KT 9999 FEW030 BKN050 05/M06 Q1018 NOSIG RMK 1CU030 7SC050 A3006
