取得日時,空港名,ICAOコード,気温(°C),露点温度(°C),風向(°),風速(kt),最大瞬間風速(kt),視程(m),気圧(hPa),現在天気,雲の状態,原文
2026-01-09T00:23:19.171466+09:00,羽田,RJTT,4,-11,320,24,35,9999,1014,,FEW40 SCTNone,RJTT 081500Z 32024G35KT 9999 FEW040 SCT/// 04/M11 Q1014 NOSIG
2026-01-09T00:53:52.933462+09:00,羽田,RJTT,4,-11,330,22,,9999,1014,,FEW40 SCTNone,RJTT 081530Z 33022KT 9999 FEW040 SCT/// 04/M11 Q1014 TEMPO TL1600 34022G32KT
2026-01-09T01:23:08.356130+09:00,羽田,RJTT,4,-12,330,21,,9999,1014,,FEW40,RJTT 081600Z 33021KT 9999 FEW040 04/M12 Q1014 NOSIG
2026-01-09T02:00:06.320692+09:00,羽田,RJTT,4,-12,330,24,,9999,1015,,FEW60,RJTT 081630Z 33024KT 9999 FEW060 04/M12 Q1015 TEMPO TL1730 34024G34KT
2026-01-09T02:34:10.901940+09:00,羽田,RJTT,4,-12,330,24,,9999,1015,,,METAR RJTT 081700Z 33024KT CAVOK 04/M12 Q1015 TEMPO 34025G35KT
