取得日時,空港名,ICAOコード,気温(°C),露点温度(°C),風向(°),風速(kt),最大瞬間風速(kt),視程(m),気圧(hPa),現在天気,雲の状態,原文
2026-01-01T00:16:24.595455+09:00,羽田,RJTT,8,4,10,11,,9999,1011,,FEW30 BKN170,RJTT 311500Z 01011KT 9999 FEW030 BKN170 08/04 Q1011 NOSIG RMK 1CU030 7AC170 A2987
2026-01-01T00:35:51.638241+09:00,羽田,RJTT,8,4,10,11,,9999,1011,,FEW30 BKN170,RJTT 311500Z 01011KT 9999 FEW030 BKN170 08/04 Q1011 NOSIG RMK 1CU030 7AC170 A2987
2026-01-01T00:48:12.766609+09:00,羽田,RJTT,8,4,10,10,,9999,1010,,FEW25 BKN60,RJTT 311530Z 01010KT 9999 FEW025 BKN060 08/04 Q1010 NOSIG RMK 1CU025 7SC060 A2985
2026-01-01T01:20:09.218580+09:00,羽田,RJTT,8,5,20,14,,9999,1010,,SCT50,RJTT 311600Z 02014KT 9999 SCT050 08/05 Q1010 NOSIG RMK 4SC050 A2984
