取得日時,空港名,ICAOコード,気温(°C),露点温度(°C),風向(°),風速(kt),最大瞬間風速(kt),視程(m),気圧(hPa),現在天気,雲の状態,原文
2026-01-10T01:57:45.656286+09:00,羽田,RJTT,6,1,310,6,,9999,1019,,FEW20 BKN30,RJTT 091630Z 31006KT 9999 FEW020 BKN030 06/01 Q1019 NOSIG RMK 1CU020 7SC030 A3010
2026-01-10T02:24:29.243952+09:00,羽田,RJTT,5,-1,300,6,,9999,1019,,FEW20 BKN30,RJTT 091700Z 30006KT 9999 FEW020 BKN030 05/M01 Q1019 NOSIG RMK 1CU020 7SC030 A3010
2026-01-10T02:51:09.699701+09:00,羽田,RJTT,5,-1,310,7,,9999,1019,,FEW20 BKN30,RJTT 091730Z 31007KT 9999 FEW020 BKN030 05/M01 Q1019 NOSIG RMK 1CU020 7SC030 A3010
2026-01-10T03:25:09.060862+09:00,羽田,RJTT,4,-2,310,7,,9999,1019,,FEW20 BKN45,RJTT 091800Z 31007KT 9999 FEW020 BKN045 04/M02 Q1019 NOSIG RMK 1CU020 7SC045 A3009
2026-01-10T03:57:55.997214+09:00,羽田,RJTT,3,-3,310,8,,9999,1018,,FEW40,RJTT 091830Z 31008KT 9999 FEW040 03/M03 Q1018 NOSIG RMK 1SC040 A3008
2026-01-10T04:21:32.966062+09:00,羽田,RJTT,3,-3,300,8,,9999,1018,,BKN30,RJTT 091900Z 30008KT 9999 BKN030 03/M03 Q1018 NOSIG RMK 6SC030 A3008
